[{"OBJECT_ID":"1999-025CUK","OBJECT_NAME":"FENGYUN 1C DEB","NORAD_CAT_ID":"32189","OBJECT_TYPE":"DEBRIS","PERIOD":"101.210","INCLINATION":"98.9807","ECCENTRICITY":"0.00365110","MEAN_MOTION":"14.22784089","TLE_LINE1":"1 32189U 99025CUK 21271.44022143  .00001957  00000-0  88688-3 0  9994","TLE_LINE2":"2 32189  98.9807 340.9622 0036511 148.8489 211.4863 14.22784089732125"},{"OBJECT_ID":"1999-025CUL","OBJECT_NAME":"FENGYUN 1C DEB","NORAD_CAT_ID":"32190","OBJECT_TYPE":"DEBRIS","PERIOD":"99.121","INCLINATION":"98.9476","ECCENTRICITY":"0.00620660","MEAN_MOTION":"14.52776100","TLE_LINE1":"1 32190U 99025CUL 21266.08444245  .00002978  00000-0  71972-3 0  9993","TLE_LINE2":"2 32190  98.9476 212.8446 0062066  16.3245 343.9929 14.52776100488134"},{"OBJECT_ID":"1999-025CUM","OBJECT_NAME":"FENGYUN 1C DEB","NORAD_CAT_ID":"32191","OBJECT_TYPE":"DEBRIS","PERIOD":"101.850","INCLINATION":"98.8458","ECCENTRICITY":"0.01067280","MEAN_MOTION":"14.13838317","TLE_LINE1":"1 32191U 99025CUM 21271.37004025  .00000820  00000-0  43260-3 0  9993","TLE_LINE2":"2 32191  98.8458 323.4178 0106728 271.6716  87.2234 14.13838317427235"},{"OBJECT_ID":"1999-025CUN","OBJECT_NAME":"FENGYUN 1C DEB","NORAD_CAT_ID":"32192","OBJECT_TYPE":"DEBRIS","PERIOD":"104.289","INCLINATION":"98.6358","ECCENTRICITY":"0.01856830","MEAN_MOTION":"13.80777586","TLE_LINE1":"1 32192U 99025CUN 21270.88871237  .00000157  00000-0  16408-3 0  9993","TLE_LINE2":"2 32192  98.6358 241.3829 0185683   0.4949 359.6357 13.80777586714927"},{"OBJECT_ID":"1999-025CUP","OBJECT_NAME":"FENGYUN 1C DEB","NORAD_CAT_ID":"32193","OBJECT_TYPE":"DEBRIS","PERIOD":"101.358","INCLINATION":"98.4792","ECCENTRICITY":"0.01002890","MEAN_MOTION":"14.20706409","TLE_LINE1":"1 32193U 99025CUP 21268.52352557  .00002284  00000-0  10259-2 0  9991","TLE_LINE2":"2 32193  98.4792  16.4232 0100289 259.3209  99.6663 14.20706409730368"},{"OBJECT_ID":"1999-025CUQ","OBJECT_NAME":"FENGYUN 1C DEB","NORAD_CAT_ID":"32194","OBJECT_TYPE":"DEBRIS","PERIOD":"99.131","INCLINATION":"99.1076","ECCENTRICITY":"0.00749180","MEAN_MOTION":"14.52620149","TLE_LINE1":"1 32194U 99025CUQ 21262.37601187  .00001174  00000-0  28989-3 0  9992","TLE_LINE2":"2 32194  99.1076 320.0919 0074918 343.1726  16.6983 14.52620149493881"},{"OBJECT_ID":"1999-025CUR","OBJECT_NAME":"FENGYUN 1C DEB","NORAD_CAT_ID":"32195","OBJECT_TYPE":"DEBRIS","PERIOD":"102.498","INCLINATION":"98.8410","ECCENTRICITY":"0.00710370","MEAN_MOTION":"14.04901389","TLE_LINE1":"1 32195U 99025CUR 21271.90901694  .00000191  00000-0  14260-3 0  9993","TLE_LINE2":"2 32195  98.8410 297.0010 0071037 295.5361  63.8473 14.04901389727545"},{"OBJECT_ID":"1999-025CUT","OBJECT_NAME":"FENGYUN 1C DEB","NORAD_CAT_ID":"32197","OBJECT_TYPE":"DEBRIS","PERIOD":"100.861","INCLINATION":"99.0614","ECCENTRICITY":"0.01738280","MEAN_MOTION":"14.27712062","TLE_LINE1":"1 32197U 99025CUT 21271.42127612  .00000232  00000-0  97853-4 0  9998","TLE_LINE2":"2 32197  99.0614 112.6170 0173828  13.4618 103.0044 14.27712062738083"},{"OBJECT_ID":"1999-025CUU","OBJECT_NAME":"FENGYUN 1C DEB","NORAD_CAT_ID":"32198","OBJECT_TYPE":"DEBRIS","PERIOD":"103.021","INCLINATION":"98.3595","ECCENTRICITY":"0.01049290","MEAN_MOTION":"13.97771273","TLE_LINE1":"1 32198U 99025CUU 21269.54558371  .00000788  00000-0  55861-3 0  9997","TLE_LINE2":"2 32198  98.3595 166.3680 0104929 326.9621  32.5017 13.97771273729720"},{"OBJECT_ID":"1999-025CUV","OBJECT_NAME":"FENGYUN 1C DEB","NORAD_CAT_ID":"32199","OBJECT_TYPE":"DEBRIS","PERIOD":"98.557","INCLINATION":"99.1460","ECCENTRICITY":"0.01099830","MEAN_MOTION":"14.61081279","TLE_LINE1":"1 32199U 99025CUV 21270.44891245  .00003366  00000-0  64019-3 0  9999","TLE_LINE2":"2 32199  99.1460   6.5773 0109983  64.3906 296.8608 14.61081279369164"},{"OBJECT_ID":"1999-025CUW","OBJECT_NAME":"FENGYUN 1C DEB","NORAD_CAT_ID":"32200","OBJECT_TYPE":"DEBRIS","PERIOD":"102.245","INCLINATION":"98.9328","ECCENTRICITY":"0.00425990","MEAN_MOTION":"14.08384364","TLE_LINE1":"1 32200U 99025CUW 21271.38105597  .00000524  00000-0  32943-3 0  9998","TLE_LINE2":"2 32200  98.9328 319.2851 0042599 314.6720  45.0981 14.08384364726923"},{"OBJECT_ID":"1999-025CUY","OBJECT_NAME":"FENGYUN 1C DEB","NORAD_CAT_ID":"32202","OBJECT_TYPE":"DEBRIS","PERIOD":"101.129","INCLINATION":"98.4695","ECCENTRICITY":"0.01141500","MEAN_MOTION":"14.23925684","TLE_LINE1":"1 32202U 99025CUY 21272.30635424  .00003637  00000-0  14998-2 0  9997","TLE_LINE2":"2 32202  98.4695 303.7036 0114150 347.0542  12.7713 14.23925684728632"},{"OBJECT_ID":"1999-025CUZ","OBJECT_NAME":"FENGYUN 1C DEB","NORAD_CAT_ID":"32203","OBJECT_TYPE":"DEBRIS","PERIOD":"97.373","INCLINATION":"97.0058","ECCENTRICITY":"0.03417310","MEAN_MOTION":"14.78842877","TLE_LINE1":"1 32203U 99025CUZ 21272.30459452  .00005033  00000-0  25296-3 0  9999","TLE_LINE2":"2 32203  97.0058 285.0939 0341731 313.2298  44.0840 14.78842877758268"},{"OBJECT_ID":"1999-025CVA","OBJECT_NAME":"FENGYUN 1C DEB","NORAD_CAT_ID":"32204","OBJECT_TYPE":"DEBRIS","PERIOD":"99.079","INCLINATION":"99.3466","ECCENTRICITY":"0.01120280","MEAN_MOTION":"14.53382657","TLE_LINE1":"1 32204U 99025CVA 21271.25083458  .00008052  00000-0  17930-2 0  9991","TLE_LINE2":"2 32204  99.3466 272.8912 0112028 198.1614 161.5564 14.53382657484205"},{"OBJECT_ID":"1999-025CVB","OBJECT_NAME":"FENGYUN 1C DEB","NORAD_CAT_ID":"32205","OBJECT_TYPE":"DEBRIS","PERIOD":"101.943","INCLINATION":"98.7566","ECCENTRICITY":"0.00106950","MEAN_MOTION":"14.12560705","TLE_LINE1":"1 32205U 99025CVB 21272.04512328  .00000037  00000-0  43146-4 0  9998","TLE_LINE2":"2 32205  98.7566 297.1322 0010695 350.0960  68.4002 14.12560705732110"},{"OBJECT_ID":"1999-025CVD","OBJECT_NAME":"FENGYUN 1C DEB","NORAD_CAT_ID":"32207","OBJECT_TYPE":"DEBRIS","PERIOD":"100.366","INCLINATION":"99.8392","ECCENTRICITY":"0.00920870","MEAN_MOTION":"14.34749237","TLE_LINE1":"1 32207U 99025CVD 21270.99777124  .00000230  00000-0  96619-4 0  9997","TLE_LINE2":"2 32207  99.8392 349.0159 0092087 205.4655 330.0914 14.34749237422417"},{"OBJECT_ID":"1999-025CVE","OBJECT_NAME":"FENGYUN 1C DEB","NORAD_CAT_ID":"32208","OBJECT_TYPE":"DEBRIS","PERIOD":"97.821","INCLINATION":"98.9439","ECCENTRICITY":"0.00299420","MEAN_MOTION":"14.72072218","TLE_LINE1":"1 32208U 99025CVE 21251.80705168  .00005130  00000-0  81947-3 0  9997","TLE_LINE2":"2 32208  98.9439 249.1142 0029942 232.7293 127.1180 14.72072218746793"},{"OBJECT_ID":"1999-025CVF","OBJECT_NAME":"FENGYUN 1C DEB","NORAD_CAT_ID":"32209","OBJECT_TYPE":"DEBRIS","PERIOD":"107.368","INCLINATION":"99.3748","ECCENTRICITY":"0.03467610","MEAN_MOTION":"13.41185956","TLE_LINE1":"1 32209U 99025CVF 21272.35798484  .00000467  00000-0  64520-3 0  9990","TLE_LINE2":"2 32209  99.3748 301.5487 0346761 242.7512 113.7899 13.41185956694466"},{"OBJECT_ID":"1999-025CVG","OBJECT_NAME":"FENGYUN 1C DEB","NORAD_CAT_ID":"32210","OBJECT_TYPE":"DEBRIS","PERIOD":"102.576","INCLINATION":"98.9994","ECCENTRICITY":"0.00807980","MEAN_MOTION":"14.03831617","TLE_LINE1":"1 32210U 99025CVG 21271.35251426  .00000804  00000-0  52247-3 0  9999","TLE_LINE2":"2 32210  98.9994 316.3495 0080798 151.1952 209.3711 14.03831617397832"},{"OBJECT_ID":"1999-025CVJ","OBJECT_NAME":"FENGYUN 1C DEB","NORAD_CAT_ID":"32212","OBJECT_TYPE":"DEBRIS","PERIOD":"100.465","INCLINATION":"99.5707","ECCENTRICITY":"0.01516260","MEAN_MOTION":"14.33335616","TLE_LINE1":"1 32212U 99025CVJ 21271.19520469  .00000268  00000-0  10383-3 0  9998","TLE_LINE2":"2 32212  99.5707 172.7119 0151626 181.2222 332.9771 14.33335616740059"},{"OBJECT_ID":"1999-025CVL","OBJECT_NAME":"FENGYUN 1C DEB","NORAD_CAT_ID":"32214","OBJECT_TYPE":"DEBRIS","PERIOD":"104.817","INCLINATION":"99.0313","ECCENTRICITY":"0.02247800","MEAN_MOTION":"13.73818022","TLE_LINE1":"1 32214U 99025CVL 21271.43848192  .00001294  00000-0  11889-2 0  9994","TLE_LINE2":"2 32214  99.0313 340.0490 0224780 182.1953 191.9133 13.73818022412291"},{"OBJECT_ID":"1999-025CVN","OBJECT_NAME":"FENGYUN 1C DEB","NORAD_CAT_ID":"32216","OBJECT_TYPE":"DEBRIS","PERIOD":"100.285","INCLINATION":"99.5672","ECCENTRICITY":"0.00529070","MEAN_MOTION":"14.35906289","TLE_LINE1":"1 32216U 99025CVN 21270.36470713  .00001707  00000-0  59698-3 0  9997","TLE_LINE2":"2 32216  99.5672  97.0721 0052907 146.8005 213.6515 14.35906289404050"},{"OBJECT_ID":"1999-025CVP","OBJECT_NAME":"FENGYUN 1C DEB","NORAD_CAT_ID":"32217","OBJECT_TYPE":"DEBRIS","PERIOD":"100.262","INCLINATION":"99.0890","ECCENTRICITY":"0.00489080","MEAN_MOTION":"14.36234397","TLE_LINE1":"1 32217U 99025CVP 21270.04764558  .00001676  00000-0  58285-3 0  9992","TLE_LINE2":"2 32217  99.0890 205.6548 0048908 294.5549  65.0542 14.36234397338197"},{"OBJECT_ID":"1999-025CVQ","OBJECT_NAME":"FENGYUN 1C DEB","NORAD_CAT_ID":"32218","OBJECT_TYPE":"DEBRIS","PERIOD":"100.097","INCLINATION":"98.6927","ECCENTRICITY":"0.00821610","MEAN_MOTION":"14.38598840","TLE_LINE1":"1 32218U 99025CVQ 21271.29195649  .00000279  00000-0  10251-3 0  9999","TLE_LINE2":"2 32218  98.6927  34.5335 0082161 351.2341  39.1212 14.38598840741133"},{"OBJECT_ID":"1999-025CVT","OBJECT_NAME":"FENGYUN 1C DEB","NORAD_CAT_ID":"32221","OBJECT_TYPE":"DEBRIS","PERIOD":"99.198","INCLINATION":"98.4033","ECCENTRICITY":"0.01628080","MEAN_MOTION":"14.51649368","TLE_LINE1":"1 32221U 99025CVT 21271.53966935  .00000388  00000-0  92922-4 0  9991","TLE_LINE2":"2 32221  98.4033  20.0984 0162808 179.3890 180.7534 14.51649368748682"},{"OBJECT_ID":"1999-025CVU","OBJECT_NAME":"FENGYUN 1C DEB","NORAD_CAT_ID":"32222","OBJECT_TYPE":"DEBRIS","PERIOD":"101.105","INCLINATION":"99.1567","ECCENTRICITY":"0.00978180","MEAN_MOTION":"14.24263365","TLE_LINE1":"1 32222U 99025CVU 21272.38220590  .00001625  00000-0  68974-3 0  9990","TLE_LINE2":"2 32222  99.1567 107.4858 0097818  38.2902 322.5168 14.24263365732049"}]